[{"OBJECT_NAME":"STARLINK-11519 [DTC]","OBJECT_ID":"2025-006G","EPOCH":"2025-08-30T06:38:55.258944","MEAN_MOTION":15.70878355,"ECCENTRICITY":0.00026619,"INCLINATION":42.9989,"RA_OF_ASC_NODE":214.0719,"ARG_OF_PERICENTER":275.2414,"MEAN_ANOMALY":84.8149,"EPHEMERIS_TYPE":0,"CLASSIFICATION_TYPE":"U","NORAD_CAT_ID":62560,"ELEMENT_SET_NO":999,"REV_AT_EPOCH":3649,"BSTAR":0.0023995613,"MEAN_MOTION_DOT":0.00320128,"MEAN_MOTION_DDOT":0},{"OBJECT_NAME":"STARLINK-11451 [DTC]","OBJECT_ID":"2025-006H","EPOCH":"2025-08-30T14:45:48.763008","MEAN_MOTION":15.70873356,"ECCENTRICITY":6.69e-5,"INCLINATION":43.0004,"RA_OF_ASC_NODE":211.422,"ARG_OF_PERICENTER":357.6186,"MEAN_ANOMALY":2.4678,"EPHEMERIS_TYPE":0,"CLASSIFICATION_TYPE":"U","NORAD_CAT_ID":62561,"ELEMENT_SET_NO":999,"REV_AT_EPOCH":3655,"BSTAR":0.0027877245,"MEAN_MOTION_DOT":0.00374394,"MEAN_MOTION_DDOT":0},{"OBJECT_NAME":"STARLINK-11530 [DTC]","OBJECT_ID":"2025-006J","EPOCH":"2025-08-30T06:37:35.946336","MEAN_MOTION":15.70973573,"ECCENTRICITY":0.00042426,"INCLINATION":42.9994,"RA_OF_ASC_NODE":214.0633,"ARG_OF_PERICENTER":250.0289,"MEAN_ANOMALY":110.0122,"EPHEMERIS_TYPE":0,"CLASSIFICATION_TYPE":"U","NORAD_CAT_ID":62562,"ELEMENT_SET_NO":999,"REV_AT_EPOCH":3649,"BSTAR":0.0019674193,"MEAN_MOTION_DOT":0.00261628,"MEAN_MOTION_DDOT":0},{"OBJECT_NAME":"STARLINK-11536 [DTC]","OBJECT_ID":"2025-006K","EPOCH":"2025-08-30T22:31:14.854368","MEAN_MOTION":15.70931072,"ECCENTRICITY":0.00014097,"INCLINATION":42.9993,"RA_OF_ASC_NODE":209.5483,"ARG_OF_PERICENTER":243.2205,"MEAN_ANOMALY":116.8519,"EPHEMERIS_TYPE":0,"CLASSIFICATION_TYPE":"U","NORAD_CAT_ID":62563,"ELEMENT_SET_NO":999,"REV_AT_EPOCH":3660,"BSTAR":0.0024700857,"MEAN_MOTION_DOT":0.00330702,"MEAN_MOTION_DDOT":0},{"OBJECT_NAME":"STARLINK-11540 [DTC]","OBJECT_ID":"2025-006L","EPOCH":"2025-08-30T15:24:02.715840","MEAN_MOTION":15.70890968,"ECCENTRICITY":3.171e-5,"INCLINATION":42.9995,"RA_OF_ASC_NODE":211.6347,"ARG_OF_PERICENTER":32.9951,"MEAN_ANOMALY":327.0937,"EPHEMERIS_TYPE":0,"CLASSIFICATION_TYPE":"U","NORAD_CAT_ID":62564,"ELEMENT_SET_NO":999,"REV_AT_EPOCH":3655,"BSTAR":0.0021288296,"MEAN_MOTION_DOT":0.00282831,"MEAN_MOTION_DDOT":0},{"OBJECT_NAME":"STARLINK-11523 [DTC]","OBJECT_ID":"2025-006M","EPOCH":"2025-08-30T23:09:28.648224","MEAN_MOTION":15.70887965,"ECCENTRICITY":0.0004445,"INCLINATION":43.0015,"RA_OF_ASC_NODE":209.7614,"ARG_OF_PERICENTER":294.0771,"MEAN_ANOMALY":65.9632,"EPHEMERIS_TYPE":0,"CLASSIFICATION_TYPE":"U","NORAD_CAT_ID":62565,"ELEMENT_SET_NO":999,"REV_AT_EPOCH":3660,"BSTAR":0.0023543632,"MEAN_MOTION_DOT":0.00314042,"MEAN_MOTION_DDOT":0},{"OBJECT_NAME":"STARLINK-11525 [DTC]","OBJECT_ID":"2025-006N","EPOCH":"2025-08-30T22:00:52.235136","MEAN_MOTION":15.70813455,"ECCENTRICITY":0.0001268,"INCLINATION":42.9993,"RA_OF_ASC_NODE":210.272,"ARG_OF_PERICENTER":252.3799,"MEAN_ANOMALY":107.6931,"EPHEMERIS_TYPE":0,"CLASSIFICATION_TYPE":"U","NORAD_CAT_ID":62566,"ELEMENT_SET_NO":999,"REV_AT_EPOCH":3659,"BSTAR":0.00028325374,"MEAN_MOTION_DOT":0.00036013,"MEAN_MOTION_DDOT":0},{"OBJECT_NAME":"STARLINK-32752","OBJECT_ID":"2025-006P","EPOCH":"2025-08-30T20:09:03.343392","MEAN_MOTION":15.27582017,"ECCENTRICITY":2.199e-5,"INCLINATION":43.0004,"RA_OF_ASC_NODE":290.4808,"ARG_OF_PERICENTER":284.2234,"MEAN_ANOMALY":75.8593,"EPHEMERIS_TYPE":0,"CLASSIFICATION_TYPE":"U","NORAD_CAT_ID":62567,"ELEMENT_SET_NO":999,"REV_AT_EPOCH":3567,"BSTAR":0.0017229728,"MEAN_MOTION_DOT":0.00047459,"MEAN_MOTION_DDOT":0},{"OBJECT_NAME":"STARLINK-32760","OBJECT_ID":"2025-006Q","EPOCH":"2025-08-30T20:20:09.027744","MEAN_MOTION":15.27602096,"ECCENTRICITY":0.00011143,"INCLINATION":43.0008,"RA_OF_ASC_NODE":290.5367,"ARG_OF_PERICENTER":263.3833,"MEAN_ANOMALY":96.6891,"EPHEMERIS_TYPE":0,"CLASSIFICATION_TYPE":"U","NORAD_CAT_ID":62568,"ELEMENT_SET_NO":999,"REV_AT_EPOCH":3567,"BSTAR":0.00091539859,"MEAN_MOTION_DOT":0.0002503,"MEAN_MOTION_DDOT":0},{"OBJECT_NAME":"STARLINK-32715","OBJECT_ID":"2025-006R","EPOCH":"2025-08-30T20:29:24.045792","MEAN_MOTION":15.27589908,"ECCENTRICITY":0.000197,"INCLINATION":43.0023,"RA_OF_ASC_NODE":290.5869,"ARG_OF_PERICENTER":264.3566,"MEAN_ANOMALY":95.7061,"EPHEMERIS_TYPE":0,"CLASSIFICATION_TYPE":"U","NORAD_CAT_ID":62569,"ELEMENT_SET_NO":999,"REV_AT_EPOCH":3567,"BSTAR":0.0011522421,"MEAN_MOTION_DOT":0.00031591,"MEAN_MOTION_DDOT":0},{"OBJECT_NAME":"STARLINK-32764","OBJECT_ID":"2025-006S","EPOCH":"2025-08-30T12:49:43.447296","MEAN_MOTION":15.2761464,"ECCENTRICITY":0.00011041,"INCLINATION":43.0021,"RA_OF_ASC_NODE":292.4924,"ARG_OF_PERICENTER":284.6665,"MEAN_ANOMALY":75.4064,"EPHEMERIS_TYPE":0,"CLASSIFICATION_TYPE":"U","NORAD_CAT_ID":62570,"ELEMENT_SET_NO":999,"REV_AT_EPOCH":3562,"BSTAR":0.0010672697,"MEAN_MOTION_DOT":0.00029254,"MEAN_MOTION_DDOT":0},{"OBJECT_NAME":"STARLINK-32773","OBJECT_ID":"2025-006T","EPOCH":"2025-08-30T19:43:08.905440","MEAN_MOTION":15.27592528,"ECCENTRICITY":7.442e-5,"INCLINATION":43.0071,"RA_OF_ASC_NODE":290.3457,"ARG_OF_PERICENTER":269.2211,"MEAN_ANOMALY":90.8555,"EPHEMERIS_TYPE":0,"CLASSIFICATION_TYPE":"U","NORAD_CAT_ID":62571,"ELEMENT_SET_NO":999,"REV_AT_EPOCH":3567,"BSTAR":0.00066521045,"MEAN_MOTION_DOT":0.00018095,"MEAN_MOTION_DDOT":0},{"OBJECT_NAME":"STARLINK-32750","OBJECT_ID":"2025-006U","EPOCH":"2025-08-30T09:52:18.184512","MEAN_MOTION":15.27596572,"ECCENTRICITY":0.00018176,"INCLINATION":42.9972,"RA_OF_ASC_NODE":292.42,"ARG_OF_PERICENTER":108.5369,"MEAN_ANOMALY":251.568,"EPHEMERIS_TYPE":0,"CLASSIFICATION_TYPE":"U","NORAD_CAT_ID":62572,"ELEMENT_SET_NO":999,"REV_AT_EPOCH":3561,"BSTAR":0.00095442386,"MEAN_MOTION_DOT":0.00026108,"MEAN_MOTION_DDOT":0},{"OBJECT_NAME":"STARLINK-32771","OBJECT_ID":"2025-006V","EPOCH":"2025-08-30T11:41:15.544608","MEAN_MOTION":15.27603949,"ECCENTRICITY":0.00014186,"INCLINATION":43.0001,"RA_OF_ASC_NODE":292.1294,"ARG_OF_PERICENTER":269.1683,"MEAN_ANOMALY":90.9006,"EPHEMERIS_TYPE":0,"CLASSIFICATION_TYPE":"U","NORAD_CAT_ID":62573,"ELEMENT_SET_NO":999,"REV_AT_EPOCH":3562,"BSTAR":0.0016595833,"MEAN_MOTION_DOT":0.00045723,"MEAN_MOTION_DDOT":0},{"OBJECT_NAME":"STARLINK-32766","OBJECT_ID":"2025-006W","EPOCH":"2025-08-30T19:57:56.807136","MEAN_MOTION":15.27593682,"ECCENTRICITY":0.00014641,"INCLINATION":42.9997,"RA_OF_ASC_NODE":290.4166,"ARG_OF_PERICENTER":277.4858,"MEAN_ANOMALY":82.5827,"EPHEMERIS_TYPE":0,"CLASSIFICATION_TYPE":"U","NORAD_CAT_ID":62574,"ELEMENT_SET_NO":999,"REV_AT_EPOCH":3567,"BSTAR":0.0015569495,"MEAN_MOTION_DOT":0.00042849,"MEAN_MOTION_DDOT":0},{"OBJECT_NAME":"STARLINK-11547 [DTC]","OBJECT_ID":"2025-008A","EPOCH":"2025-08-30T21:18:16.441920","MEAN_MOTION":15.70893896,"ECCENTRICITY":0.00017937,"INCLINATION":42.9982,"RA_OF_ASC_NODE":196.4724,"ARG_OF_PERICENTER":295.3303,"MEAN_ANOMALY":64.7378,"EPHEMERIS_TYPE":0,"CLASSIFICATION_TYPE":"U","NORAD_CAT_ID":62587,"ELEMENT_SET_NO":999,"REV_AT_EPOCH":3610,"BSTAR":0.0013224505,"MEAN_MOTION_DOT":0.00173215,"MEAN_MOTION_DDOT":0}]
