STARLINK-11519 [DTC]    
1 62560U 25006G   25242.27702846  .00320128  00000+0  23996-2 0  9999
2 62560  42.9989 214.0719 0002661 275.2414  84.8149 15.70878355 36491
STARLINK-11451 [DTC]    
1 62561U 25006H   25242.61514772  .00374394  00000+0  27877-2 0  9993
2 62561  43.0004 211.4220 0000669 357.6186   2.4678 15.70873356 36553
STARLINK-11530 [DTC]    
1 62562U 25006J   25242.27611049  .00261628  00000+0  19674-2 0  9992
2 62562  42.9994 214.0633 0004242 250.0289 110.0122 15.70973573 36493
STARLINK-11536 [DTC]    
1 62563U 25006K   25242.93836637  .00330702  00000+0  24701-2 0  9995
2 62563  42.9993 209.5483 0001409 243.2205 116.8519 15.70931072 36604
STARLINK-11540 [DTC]    
1 62564U 25006L   25242.64169810  .00282831  00000+0  21288-2 0  9992
2 62564  42.9995 211.6347 0000317  32.9951 327.0937 15.70890968 36550
STARLINK-11523 [DTC]    
1 62565U 25006M   25242.96491491  .00314042  00000+0  23544-2 0  9998
2 62565  43.0015 209.7614 0004445 294.0771  65.9632 15.70887965 36607
STARLINK-11525 [DTC]    
1 62566U 25006N   25242.91727124  .00036013  00000+0  28325-3 0  9991
2 62566  42.9993 210.2720 0001268 252.3799 107.6931 15.70813455 36590
STARLINK-32752          
1 62567U 25006P   25242.83962203  .00047459  00000+0  17230-2 0  9990
2 62567  43.0004 290.4808 0000219 284.2234  75.8593 15.27582017 35673
STARLINK-32760          
1 62568U 25006Q   25242.84732671  .00025030  00000+0  91540-3 0  9994
2 62568  43.0008 290.5367 0001114 263.3833  96.6891 15.27602096 35679
STARLINK-32715          
1 62569U 25006R   25242.85375053  .00031591  00000+0  11522-2 0  9993
2 62569  43.0023 290.5869 0001970 264.3566  95.7061 15.27589908 35673
STARLINK-32764          
1 62570U 25006S   25242.53453064  .00029254  00000+0  10673-2 0  9998
2 62570  43.0021 292.4924 0001104 284.6665  75.4064 15.27614640 35625
STARLINK-32773          
1 62571U 25006T   25242.82163085  .00018095  00000+0  66521-3 0  9997
2 62571  43.0071 290.3457 0000744 269.2211  90.8555 15.27592528 35675
STARLINK-32750          
1 62572U 25006U   25242.41132158  .00026108  00000+0  95442-3 0  9998
2 62572  42.9972 292.4200 0001817 108.5369 251.5680 15.27596572 35616
STARLINK-32771          
1 62573U 25006V   25242.48698547  .00045723  00000+0  16596-2 0  9991
2 62573  43.0001 292.1294 0001418 269.1683  90.9006 15.27603949 35627
STARLINK-32766          
1 62574U 25006W   25242.83190749  .00042849  00000+0  15569-2 0  9997
2 62574  42.9997 290.4166 0001464 277.4858  82.5827 15.27593682 35671
STARLINK-11547 [DTC]    
1 62587U 25008A   25242.88769030  .00173215  00000+0  13225-2 0  9992
2 62587  42.9982 196.4724 0001793 295.3303  64.7378 15.70893896 36103
